{
  "type": "FeatureCollection",
  "features": [
    {
      "type": "Feature",
      "properties": {
        "norad_id": 57400,
        "name": "TIANMU-1 08",
        "group": "weather",
        "lat": -67.44146432298642,
        "lon": -148.87119160185767,
        "alt_km": 492.7848070878308,
        "timestamp": "2025-12-25T16:53:14.296905+00:00",
        "meta_object_name": "TIANMU-1 08",
        "meta_object_id": "2023-101B",
        "meta_epoch": "2025-12-25T06:22:27.507360",
        "meta_mean_motion": 15.28228864,
        "meta_eccentricity": 0.0006926,
        "meta_inclination": 97.2844,
        "meta_ra_of_asc_node": 48.6348,
        "meta_arg_of_pericenter": 48.3834,
        "meta_mean_anomaly": 311.7998,
        "meta_ephemeris_type": 0,
        "meta_classification_type": "U",
        "meta_norad_cat_id": 57400,
        "meta_element_set_no": 999,
        "meta_rev_at_epoch": 13506,
        "meta_bstar": 0.00027428765,
        "meta_mean_motion_dot": 7.477e-05,
        "meta_mean_motion_ddot": 0,
        "tle_line1": "1 57400U 23101B   25359.26559615  .00007477  00000+0  27429-3 0  9997",
        "tle_line2": "2 57400  97.2844  48.6348 0006926  48.3834 311.7998 15.28228864135067"
      },
      "geometry": {
        "type": "Point",
        "coordinates": [
          -148.87119160185767,
          -67.44146432298642
        ]
      }
    },
    {
      "type": "Feature",
      "properties": {
        "norad_id": 57401,
        "name": "TIANMU-1 09",
        "group": "weather",
        "lat": -37.088982070136716,
        "lon": 54.115701680196345,
        "alt_km": 487.0636413249995,
        "timestamp": "2025-12-25T16:53:14.296923+00:00",
        "meta_object_name": "TIANMU-1 09",
        "meta_object_id": "2023-101C",
        "meta_epoch": "2025-12-25T06:03:02.932992",
        "meta_mean_motion": 15.28264318,
        "meta_eccentricity": 0.00062088,
        "meta_inclination": 97.2802,
        "meta_ra_of_asc_node": 48.1283,
        "meta_arg_of_pericenter": 49.3515,
        "meta_mean_anomaly": 310.8264,
        "meta_ephemeris_type": 0,
        "meta_classification_type": "U",
        "meta_norad_cat_id": 57401,
        "meta_element_set_no": 999,
        "meta_rev_at_epoch": 13506,
        "meta_bstar": 0.00029096017,
        "meta_mean_motion_dot": 7.944e-05,
        "meta_mean_motion_ddot": 0,
        "tle_line1": "1 57401U 23101C   25359.25211728  .00007944  00000+0  29096-3 0  9998",
        "tle_line2": "2 57401  97.2802  48.1283 0006208  49.3515 310.8264 15.28264318135065"
      },
      "geometry": {
        "type": "Point",
        "coordinates": [
          54.115701680196345,
          -37.088982070136716
        ]
      }
    },
    {
      "type": "Feature",
      "properties": {
        "norad_id": 57402,
        "name": "TIANMU-1 10",
        "group": "weather",
        "lat": 45.08991373663595,
        "lon": -123.19046128494338,
        "alt_km": 477.1163860993929,
        "timestamp": "2025-12-25T16:53:14.296940+00:00",
        "meta_object_name": "TIANMU-1 10",
        "meta_object_id": "2023-101D",
        "meta_epoch": "2025-12-25T06:52:24.513312",
        "meta_mean_motion": 15.28256593,
        "meta_eccentricity": 0.00079128,
        "meta_inclination": 97.2882,
        "meta_ra_of_asc_node": 49.025,
        "meta_arg_of_pericenter": 46.708,
        "meta_mean_anomaly": 313.4818,
        "meta_ephemeris_type": 0,
        "meta_classification_type": "U",
        "meta_norad_cat_id": 57402,
        "meta_element_set_no": 999,
        "meta_rev_at_epoch": 13506,
        "meta_bstar": 0.00030177812,
        "meta_mean_motion_dot": 8.243e-05,
        "meta_mean_motion_ddot": 0,
        "tle_line1": "1 57402U 23101D   25359.28639483  .00008243  00000+0  30178-3 0  9990",
        "tle_line2": "2 57402  97.2882  49.0250 0007912  46.7080 313.4818 15.28256593135069"
      },
      "geometry": {
        "type": "Point",
        "coordinates": [
          -123.19046128494338,
          45.08991373663595
        ]
      }
    },
    {
      "type": "Feature",
      "properties": {
        "norad_id": 57490,
        "name": "FENGYUN 3F",
        "group": "weather",
        "lat": 29.011250479687106,
        "lon": 62.911864738571076,
        "alt_km": 824.2381227806418,
        "timestamp": "2025-12-25T16:53:14.296958+00:00",
        "meta_object_name": "FENGYUN 3F",
        "meta_object_id": "2023-111A",
        "meta_epoch": "2025-12-25T06:36:07.415712",
        "meta_mean_motion": 14.19896787,
        "meta_eccentricity": 8.35e-05,
        "meta_inclination": 98.7067,
        "meta_ra_of_asc_node": 67.3653,
        "meta_arg_of_pericenter": 117.6726,
        "meta_mean_anomaly": 242.4535,
        "meta_ephemeris_type": 0,
        "meta_classification_type": "U",
        "meta_norad_cat_id": 57490,
        "meta_element_set_no": 999,
        "meta_rev_at_epoch": 12418,
        "meta_bstar": 5.6354896e-05,
        "meta_mean_motion_dot": 7.6e-07,
        "meta_mean_motion_ddot": 0,
        "tle_line1": "1 57490U 23111A   25359.27508583  .00000076  00000+0  56355-4 0  9995",
        "tle_line2": "2 57490  98.7067  67.3653 0000835 117.6726 242.4535 14.19896787124181"
      },
      "geometry": {
        "type": "Point",
        "coordinates": [
          62.911864738571076,
          29.011250479687106
        ]
      }
    },
    {
      "type": "Feature",
      "properties": {
        "norad_id": 58584,
        "name": "ARKTIKA-M 2",
        "group": "weather",
        "lat": 34.10649031893904,
        "lon": -26.52985161980172,
        "alt_km": 17553.294027511794,
        "timestamp": "2025-12-25T16:53:14.296977+00:00",
        "meta_object_name": "ARKTIKA-M 2",
        "meta_object_id": "2023-198A",
        "meta_epoch": "2025-12-24T19:00:30.507264",
        "meta_mean_motion": 2.00602347,
        "meta_eccentricity": 0.6865959,
        "meta_inclination": 63.2255,
        "meta_ra_of_asc_node": 173.58,
        "meta_arg_of_pericenter": 268.0557,
        "meta_mean_anomaly": 18.8416,
        "meta_ephemeris_type": 0,
        "meta_classification_type": "U",
        "meta_norad_cat_id": 58584,
        "meta_element_set_no": 999,
        "meta_rev_at_epoch": 1482,
        "meta_bstar": 0,
        "meta_mean_motion_dot": 2.24e-06,
        "meta_mean_motion_ddot": 0,
        "tle_line1": "1 58584U 23198A   25358.79201976  .00000224  00000+0  00000+0 0  9993",
        "tle_line2": "2 58584  63.2255 173.5800 6865959 268.0557  18.8416  2.00602347 14827"
      },
      "geometry": {
        "type": "Point",
        "coordinates": [
          -26.52985161980172,
          34.10649031893904
        ]
      }
    },
    {
      "type": "Feature",
      "properties": {
        "norad_id": 58645,
        "name": "TIANMU-1 11",
        "group": "weather",
        "lat": 28.998050105878836,
        "lon": -156.792691934091,
        "alt_km": 491.5423291799334,
        "timestamp": "2025-12-25T16:53:14.296995+00:00",
        "meta_object_name": "TIANMU-1 11",
        "meta_object_id": "2023-205A",
        "meta_epoch": "2025-12-25T06:46:40.166976",
        "meta_mean_motion": 15.2474729,
        "meta_eccentricity": 0.00075676,
        "meta_inclination": 97.3597,
        "meta_ra_of_asc_node": 18.6852,
        "meta_arg_of_pericenter": 256.5867,
        "meta_mean_anomaly": 103.4527,
        "meta_ephemeris_type": 0,
        "meta_classification_type": "U",
        "meta_norad_cat_id": 58645,
        "meta_element_set_no": 999,
        "meta_rev_at_epoch": 11100,
        "meta_bstar": 0.00027264278,
        "meta_mean_motion_dot": 6.686e-05,
        "meta_mean_motion_ddot": 0,
        "tle_line1": "1 58645U 23205A   25359.28240934  .00006686  00000+0  27264-3 0  9995",
        "tle_line2": "2 58645  97.3597  18.6852 0007567 256.5867 103.4527 15.24747290111000"
      },
      "geometry": {
        "type": "Point",
        "coordinates": [
          -156.792691934091,
          28.998050105878836
        ]
      }
    },
    {
      "type": "Feature",
      "properties": {
        "norad_id": 58646,
        "name": "TIANMU-1 12",
        "group": "weather",
        "lat": -2.481099293126845,
        "lon": 19.221008792548346,
        "alt_km": 497.6329340710281,
        "timestamp": "2025-12-25T16:53:14.297011+00:00",
        "meta_object_name": "TIANMU-1 12",
        "meta_object_id": "2023-205B",
        "meta_epoch": "2025-12-25T07:26:50.337312",
        "meta_mean_motion": 15.24635232,
        "meta_eccentricity": 0.00060026,
        "meta_inclination": 97.3585,
        "meta_ra_of_asc_node": 18.5138,
        "meta_arg_of_pericenter": 234.2247,
        "meta_mean_anomaly": 125.8433,
        "meta_ephemeris_type": 0,
        "meta_classification_type": "U",
        "meta_norad_cat_id": 58646,
        "meta_element_set_no": 999,
        "meta_rev_at_epoch": 11099,
        "meta_bstar": 0.00025795392,
        "meta_mean_motion_dot": 6.299e-05,
        "meta_mean_motion_ddot": 0,
        "tle_line1": "1 58646U 23205B   25359.31030483  .00006299  00000+0  25795-3 0  9993",
        "tle_line2": "2 58646  97.3585  18.5138 0006002 234.2247 125.8433 15.24635232110995"
      },
      "geometry": {
        "type": "Point",
        "coordinates": [
          19.221008792548346,
          -2.481099293126845
        ]
      }
    }
  ]
}